[{"OBJECT_NAME":"JILIN-1 KUANFU 01","OBJECT_ID":"2020-003A","EPOCH":"2026-03-09T21:54:33.175008","MEAN_MOTION":15.10079256,"ECCENTRICITY":0.00082994,"INCLINATION":97.5094,"RA_OF_ASC_NODE":144.8213,"ARG_OF_PERICENTER":285.3859,"MEAN_ANOMALY":74.6453,"EPHEMERIS_TYPE":0,"CLASSIFICATION_TYPE":"U","NORAD_CAT_ID":45016,"ELEMENT_SET_NO":999,"REV_AT_EPOCH":34034,"BSTAR":0.00024799476,"MEAN_MOTION_DOT":3.977e-5,"MEAN_MOTION_DDOT":0},{"OBJECT_NAME":"STARLINK-3989","OBJECT_ID":"2022-052AJ","EPOCH":"2026-03-09T17:21:04.413600","MEAN_MOTION":15.08838309,"ECCENTRICITY":0.00013783,"INCLINATION":53.2165,"RA_OF_ASC_NODE":268.9727,"ARG_OF_PERICENTER":87.307,"MEAN_ANOMALY":272.808,"EPHEMERIS_TYPE":0,"CLASSIFICATION_TYPE":"U","NORAD_CAT_ID":52630,"ELEMENT_SET_NO":999,"REV_AT_EPOCH":21099,"BSTAR":2.752349e-6,"MEAN_MOTION_DOT":-2.44e-6,"MEAN_MOTION_DDOT":0}]
